<?xml version="1.0" encoding="UTF-8"?>
<kml xmlns="http://www.opengis.net/kml/2.2">
  <Document>
    <name>Garis Wilayah Manembo nembo, Kec. Matuari, Kota Bitung, Sulawesi Utara</name>
    <description/>
    <Style id="line-FF5252-2540-nodesc-normal">
      <LineStyle>
        <color>ff5252ff</color>
        <width>2.54</width>
      </LineStyle>
      <BalloonStyle>
        <text><![CDATA[<h3>$[name]</h3>]]></text>
      </BalloonStyle>
    </Style>
    <Style id="line-FF5252-2540-nodesc-highlight">
      <LineStyle>
        <color>ff5252ff</color>
        <width>3.81</width>
      </LineStyle>
      <BalloonStyle>
        <text><![CDATA[<h3>$[name]</h3>]]></text>
      </BalloonStyle>
    </Style>
    <StyleMap id="line-FF5252-2540-nodesc">
      <Pair>
        <key>normal</key>
        <styleUrl>#line-FF5252-2540-nodesc-normal</styleUrl>
      </Pair>
      <Pair>
        <key>highlight</key>
        <styleUrl>#line-FF5252-2540-nodesc-highlight</styleUrl>
      </Pair>
    </StyleMap>
    <Style id="line-FF5252-2733-nodesc-normal">
      <LineStyle>
        <color>ff5252ff</color>
        <width>2.733</width>
      </LineStyle>
      <BalloonStyle>
        <text><![CDATA[<h3>$[name]</h3>]]></text>
      </BalloonStyle>
    </Style>
    <Style id="line-FF5252-2733-nodesc-highlight">
      <LineStyle>
        <color>ff5252ff</color>
        <width>4.0995</width>
      </LineStyle>
      <BalloonStyle>
        <text><![CDATA[<h3>$[name]</h3>]]></text>
      </BalloonStyle>
    </Style>
    <StyleMap id="line-FF5252-2733-nodesc">
      <Pair>
        <key>normal</key>
        <styleUrl>#line-FF5252-2733-nodesc-normal</styleUrl>
      </Pair>
      <Pair>
        <key>highlight</key>
        <styleUrl>#line-FF5252-2733-nodesc-highlight</styleUrl>
      </Pair>
    </StyleMap>
    <Style id="line-FF5252-2925-nodesc-normal">
      <LineStyle>
        <color>ff5252ff</color>
        <width>2.925</width>
      </LineStyle>
      <BalloonStyle>
        <text><![CDATA[<h3>$[name]</h3>]]></text>
      </BalloonStyle>
    </Style>
    <Style id="line-FF5252-2925-nodesc-highlight">
      <LineStyle>
        <color>ff5252ff</color>
        <width>4.3875</width>
      </LineStyle>
      <BalloonStyle>
        <text><![CDATA[<h3>$[name]</h3>]]></text>
      </BalloonStyle>
    </Style>
    <StyleMap id="line-FF5252-2925-nodesc">
      <Pair>
        <key>normal</key>
        <styleUrl>#line-FF5252-2925-nodesc-normal</styleUrl>
      </Pair>
      <Pair>
        <key>highlight</key>
        <styleUrl>#line-FF5252-2925-nodesc-highlight</styleUrl>
      </Pair>
    </StyleMap>
    <Style id="line-FF5252-3118-nodesc-normal">
      <LineStyle>
        <color>ff5252ff</color>
        <width>3.118</width>
      </LineStyle>
      <BalloonStyle>
        <text><![CDATA[<h3>$[name]</h3>]]></text>
      </BalloonStyle>
    </Style>
    <Style id="line-FF5252-3118-nodesc-highlight">
      <LineStyle>
        <color>ff5252ff</color>
        <width>4.677</width>
      </LineStyle>
      <BalloonStyle>
        <text><![CDATA[<h3>$[name]</h3>]]></text>
      </BalloonStyle>
    </Style>
    <StyleMap id="line-FF5252-3118-nodesc">
      <Pair>
        <key>normal</key>
        <styleUrl>#line-FF5252-3118-nodesc-normal</styleUrl>
      </Pair>
      <Pair>
        <key>highlight</key>
        <styleUrl>#line-FF5252-3118-nodesc-highlight</styleUrl>
      </Pair>
    </StyleMap>
    <Style id="line-FF5252-3311-nodesc-normal">
      <LineStyle>
        <color>ff5252ff</color>
        <width>3.311</width>
      </LineStyle>
      <BalloonStyle>
        <text><![CDATA[<h3>$[name]</h3>]]></text>
      </BalloonStyle>
    </Style>
    <Style id="line-FF5252-3311-nodesc-highlight">
      <LineStyle>
        <color>ff5252ff</color>
        <width>4.9665</width>
      </LineStyle>
      <BalloonStyle>
        <text><![CDATA[<h3>$[name]</h3>]]></text>
      </BalloonStyle>
    </Style>
    <StyleMap id="line-FF5252-3311-nodesc">
      <Pair>
        <key>normal</key>
        <styleUrl>#line-FF5252-3311-nodesc-normal</styleUrl>
      </Pair>
      <Pair>
        <key>highlight</key>
        <styleUrl>#line-FF5252-3311-nodesc-highlight</styleUrl>
      </Pair>
    </StyleMap>
    <Folder>
      <name>Garis Wilayah Manembo nembo, Kota Bitung</name>
      <Placemark>
        <name>Jalur tanpa judul</name>
        <styleUrl>#line-FF5252-2925-nodesc</styleUrl>
        <LineString>
          <tessellate>1</tessellate>
          <coordinates>
            125.1300029,1.4299385,0
            125.1301321,1.4300061,0
            125.1302086,1.4300424,0
            125.1302366,1.4300559,0
            125.1302632,1.4300714,0
            125.1302943,1.430084,0
            125.1304264,1.4301506,0
            125.130447,1.430537,0
            125.1304261,1.4306282,0
            125.1305017,1.4307409,0
            125.1306422,1.4309448,0
            125.1305821,1.4310047,0
            125.1304898,1.4310217,0
            125.1303804,1.4311629,0
            125.130337,1.431553,0
            125.1302917,1.4317082,0
            125.1301804,1.4318219,0
            125.1300332,1.4320003,0
            125.129784,1.43205,0
            125.1296076,1.4322235,0
            125.1293936,1.4323703,0
            125.1291658,1.4324395,0
            125.128876,1.432488,0
            125.1286666,1.4324615,0
            125.1285149,1.4324028,0
            125.12839,1.432312,0
            125.128199,1.432174,0
            125.128077,1.432087,0
            125.127947,1.432034,0
            125.127739,1.432029,0
            125.1273123,1.4321059,0
            125.126886,1.432135,0
            125.126285,1.432169,0
            125.125787,1.432223,0
            125.1254245,1.4324214,0
            125.125279,1.432612,0
            125.125234,1.432701,0
            125.125199,1.432777,0
            125.1251735,1.4330184,0
            125.1251512,1.4331907,0
            125.1251886,1.433399,0
            125.1252236,1.4335261,0
            125.1252746,1.4336425,0
            125.1254334,1.4338044,0
            125.1256243,1.4339715,0
            125.1256958,1.4340308,0
            125.1257727,1.4340739,0
            125.1259212,1.4341601,0
          </coordinates>
        </LineString>
      </Placemark>
      <Placemark>
        <name>Jalur tanpa judul</name>
        <styleUrl>#line-FF5252-2733-nodesc</styleUrl>
        <LineString>
          <tessellate>1</tessellate>
          <coordinates>
            125.1259212,1.4341601,0
            125.1261454,1.4342348,0
            125.126255,1.4342641,0
            125.1263827,1.4342847,0
            125.12644,1.4342946,0
            125.126498,1.4342837,0
            125.1266238,1.4342739,0
            125.1267845,1.4342695,0
            125.1268934,1.4343001,0
            125.1269314,1.4343102,0
            125.1269735,1.4343309,0
            125.127004,1.4343517,0
            125.1270358,1.4343713,0
            125.1270806,1.434399,0
            125.1271452,1.4344669,0
            125.1271842,1.4345093,0
            125.1272212,1.4345489,0
            125.1272622,1.4345939,0
            125.1272855,1.4346171,0
            125.127302,1.4346436,0
            125.1273341,1.4346973,0
            125.1273662,1.4347489,0
            125.1274009,1.4348048,0
            125.1274329,1.4348576,0
            125.1274931,1.4350123,0
            125.1275259,1.4350859,0
            125.1276291,1.4353191,0
            125.127645,1.4353979,0
            125.1276516,1.4354767,0
            125.1276445,1.4356336,0
            125.1276271,1.4357443,0
            125.1275863,1.4358503,0
            125.1274944,1.4359299,0
            125.1274491,1.4359751,0
            125.1273925,1.4360163,0
            125.1272508,1.4360486,0
            125.1271722,1.4360695,0
            125.1270956,1.4360997,0
            125.1269624,1.4361549,0
            125.1269306,1.4361601,0
            125.1269042,1.436176,0
            125.1268658,1.4361833,0
            125.1267482,1.4362187,0
            125.1266501,1.4362468,0
            125.126503,1.4362929,0
            125.1262747,1.436292,0
            125.125868,1.436274,0
            125.1257086,1.4362984,0
            125.1255492,1.4363362,0
            125.1254177,1.4363857,0
            125.1252848,1.4364472,0
            125.1251677,1.4365036,0
            125.1250546,1.4365586,0
            125.1248391,1.4366678,0
            125.124631,1.436806,0
          </coordinates>
        </LineString>
      </Placemark>
      <Placemark>
        <name>Jalur tanpa judul</name>
        <styleUrl>#line-FF5252-2733-nodesc</styleUrl>
        <LineString>
          <tessellate>1</tessellate>
          <coordinates>
            125.12463,1.436806,0
            125.1245299,1.4369249,0
            125.1244896,1.4369633,0
            125.124435,1.437032,0
            125.12436,1.437113,0
            125.1243157,1.437166,0
            125.1242971,1.4371867,0
            125.1242634,1.4372114,0
          </coordinates>
        </LineString>
      </Placemark>
      <Placemark>
        <name>Jalur tanpa judul</name>
        <styleUrl>#line-FF5252-2733-nodesc</styleUrl>
        <LineString>
          <tessellate>1</tessellate>
          <coordinates>
            125.1242634,1.4372114,0
            125.124188,1.437279,0
            125.124133,1.437323,0
            125.124087,1.437352,0
            125.124047,1.437393,0
            125.1239893,1.437436,0
            125.123927,1.437507,0
            125.123894,1.437556,0
            125.123857,1.4376136,0
            125.123829,1.437655,0
          </coordinates>
        </LineString>
      </Placemark>
      <Placemark>
        <name>Jalur tanpa judul</name>
        <styleUrl>#line-FF5252-2925-nodesc</styleUrl>
        <LineString>
          <tessellate>1</tessellate>
          <coordinates>
            125.123829,1.437655,0
            125.123756,1.437774,0
            125.123691,1.437862,0
            125.1236058,1.4380227,0
            125.1235796,1.438114,0
            125.1235671,1.4381705,0
            125.1235614,1.4382161,0
            125.1235351,1.4383067,0
          </coordinates>
        </LineString>
      </Placemark>
      <Placemark>
        <name>Jalur tanpa judul</name>
        <styleUrl>#line-FF5252-2733-nodesc</styleUrl>
        <LineString>
          <tessellate>1</tessellate>
          <coordinates>
            125.1235351,1.4383067,0
            125.1235056,1.4384724,0
            125.1234793,1.4385109,0
            125.1233497,1.4385346,0
            125.123291,1.4385319,0
            125.1232469,1.4385319,0
            125.1232136,1.4385239,0
            125.1230483,1.4385153,0
            125.1229636,1.4385257,0
            125.1228776,1.4385375,0
            125.122704,1.438586,0
            125.122605,1.438675,0
            125.1225337,1.4387797,0
          </coordinates>
        </LineString>
      </Placemark>
      <Placemark>
        <name>Jalur tanpa judul</name>
        <styleUrl>#line-FF5252-3118-nodesc</styleUrl>
        <LineString>
          <tessellate>1</tessellate>
          <coordinates>
            125.1225337,1.4387797,0
            125.1225221,1.4388087,0
            125.1225104,1.4388404,0
            125.1224818,1.4389167,0
            125.1224498,1.439041,0
            125.1224231,1.4391437,0
            125.1223997,1.4392483,0
            125.122372,1.43937,0
            125.122348,1.439468,0
            125.1223332,1.4395144,0
          </coordinates>
        </LineString>
      </Placemark>
      <Placemark>
        <name>Jalur tanpa judul</name>
        <styleUrl>#line-FF5252-2540-nodesc</styleUrl>
        <LineString>
          <tessellate>1</tessellate>
          <coordinates>
            125.1223332,1.4395144,0
            125.122284,1.439637,0
            125.12223,1.43979,0
            125.12216,1.439877,0
            125.122078,1.439979,0
            125.122,1.440077,0
            125.121938,1.440173,0
            125.1218967,1.4402126,0
            125.1218668,1.4402549,0
            125.1218401,1.4403141,0
            125.1218282,1.4403726,0
          </coordinates>
        </LineString>
      </Placemark>
      <Placemark>
        <name>Jalur tanpa judul</name>
        <styleUrl>#line-FF5252-2733-nodesc</styleUrl>
        <LineString>
          <tessellate>1</tessellate>
          <coordinates>
            125.1218282,1.4403726,0
            125.1218046,1.440444,0
            125.1217603,1.4405333,0
            125.1216976,1.440635,0
            125.1216365,1.4407025,0
            125.1215908,1.44076,0
            125.1215517,1.4407975,0
            125.1215059,1.4408383,0
            125.1214308,1.4409172,0
            125.1213859,1.4409549,0
            125.121359,1.4409748,0
            125.1213348,1.440992,0
            125.1212507,1.4410484,0
            125.1211904,1.4410995,0
            125.1211147,1.4411453,0
            125.1210417,1.4411646,0
            125.1209767,1.4411524,0
            125.1209228,1.4411412,0
            125.120869,1.4411461,0
            125.1208171,1.441157,0
            125.1207693,1.4411726,0
            125.1206859,1.4412033,0
            125.1206449,1.4412179,0
            125.1206133,1.441238,0
          </coordinates>
        </LineString>
      </Placemark>
      <Placemark>
        <name>Jalur tanpa judul</name>
        <styleUrl>#line-FF5252-2733-nodesc</styleUrl>
        <LineString>
          <tessellate>1</tessellate>
          <coordinates>
            125.1206133,1.441238,0
            125.1205096,1.441292,0
            125.1203954,1.4413406,0
            125.120305,1.44122,0
            125.1202086,1.441082,0
            125.1201703,1.4410367,0
            125.1201373,1.44099,0
            125.120033,1.4408647,0
            125.119772,1.44056,0
          </coordinates>
        </LineString>
      </Placemark>
      <Placemark>
        <name>Jalur tanpa judul</name>
        <styleUrl>#line-FF5252-2733-nodesc</styleUrl>
        <LineString>
          <tessellate>1</tessellate>
          <coordinates>
            125.1095843,1.4245751,0
            125.113886,1.427441,0
            125.114772,1.428126,0
            125.116234,1.429044,0
            125.117648,1.429785,0
            125.119446,1.430747,0
            125.119682,1.430923,0
            125.120008,1.431195,0
            125.12016,1.431377,0
            125.120347,1.431689,0
            125.120491,1.432053,0
            125.120824,1.433274,0
            125.121179,1.434769,0
            125.121452,1.435867,0
            125.12159,1.436248,0
            125.121677,1.436473,0
            125.12177,1.436651,0
            125.121899,1.436785,0
            125.122,1.436942,0
            125.1220318,1.4369901,0
          </coordinates>
        </LineString>
      </Placemark>
      <Placemark>
        <name>Jalur tanpa judul</name>
        <styleUrl>#line-FF5252-2733-nodesc</styleUrl>
        <LineString>
          <tessellate>1</tessellate>
          <coordinates>
            125.119787,1.44058,0
            125.1194163,1.4402615,0
            125.11974,1.439184,0
            125.121107,1.438194,0
            125.1210619,1.4373107,0
            125.1215527,1.4371611,0
            125.1220318,1.4369901,0
          </coordinates>
        </LineString>
      </Placemark>
      <Placemark>
        <name>Garis 15</name>
        <styleUrl>#line-FF5252-3311-nodesc</styleUrl>
        <LineString>
          <tessellate>1</tessellate>
          <coordinates>
            125.1095843,1.4245751,0
            125.1223117,1.4148153,0
          </coordinates>
        </LineString>
      </Placemark>
      <Placemark>
        <name>Garis 16</name>
        <styleUrl>#line-FF5252-3311-nodesc</styleUrl>
        <LineString>
          <tessellate>1</tessellate>
          <coordinates>
            125.1223117,1.4148153,0
            125.1223576,1.4156036,0
            125.1223898,1.4168907,0
            125.122701,1.4179633,0
            125.1233554,1.4195828,0
            125.1239026,1.4199904,0
            125.1241279,1.4210844,0
            125.1240421,1.4221784,0
            125.1238972,1.422956,0
            125.1241359,1.4235218,0
            125.1244498,1.4241144,0
            125.1247676,1.424782,0
            125.1250908,1.4254282,0
            125.1254972,1.4260744,0
            125.1259317,1.4267166,0
            125.1260732,1.4269392,0
            125.1261798,1.4271678,0
          </coordinates>
        </LineString>
      </Placemark>
      <Placemark>
        <name>Garis 17</name>
        <styleUrl>#line-FF5252-3311-nodesc</styleUrl>
        <LineString>
          <tessellate>1</tessellate>
          <coordinates>
            125.1261798,1.4271678,0
            125.1263091,1.4274714,0
            125.1266363,1.4278092,0
            125.1270802,1.4282396,0
            125.1277239,1.4286525,0
            125.1280297,1.4288456,0
            125.1287874,1.4292679,0
            125.1293507,1.4295749,0
            125.1300029,1.4299385,0
          </coordinates>
        </LineString>
      </Placemark>
    </Folder>
  </Document>
</kml>
